CCSDS_OMM_VERS = 2.0
CREATION_DATE  = 
ORIGINATOR     = 

OBJECT_NAME    = SHIJIAN-16 (SJ-16)
OBJECT_ID      = 2013-057A
CENTER_NAME    = EARTH
REF_FRAME      = TEME
TIME_SYSTEM    = UTC
MEAN_ELEMENT_THEORY = SGP/SGP4

EPOCH          = 2025-12-02T08:13:32.875968
MEAN_MOTION    = 14.91945353
ECCENTRICITY   = .00172997
INCLINATION    = 74.9737
RA_OF_ASC_NODE = 9.3263
ARG_OF_PERICENTER = 344.3615
MEAN_ANOMALY   = 15.7036

EPHEMERIS_TYPE = 0
CLASSIFICATION_TYPE = U
NORAD_CAT_ID   = 39358
ELEMENT_SET_NO = 999
REV_AT_EPOCH   = 65698
BSTAR          = .22240279E-3
MEAN_MOTION_DOT = .2229E-4
MEAN_MOTION_DDOT = 0

CCSDS_OMM_VERS = 2.0
CREATION_DATE  = 
ORIGINATOR     = 

OBJECT_NAME    = SL-4 R/B
OBJECT_ID      = 2014-021B
CENTER_NAME    = EARTH
REF_FRAME      = TEME
TIME_SYSTEM    = UTC
MEAN_ELEMENT_THEORY = SGP/SGP4

EPOCH          = 2025-12-01T14:58:14.672352
MEAN_MOTION    = 15.36235478
ECCENTRICITY   = .0102777
INCLINATION    = 51.6063
RA_OF_ASC_NODE = 94.5995
ARG_OF_PERICENTER = 106.2496
MEAN_ANOMALY   = 254.9823

EPHEMERIS_TYPE = 0
CLASSIFICATION_TYPE = U
NORAD_CAT_ID   = 39679
ELEMENT_SET_NO = 999
REV_AT_EPOCH   = 64118
BSTAR          = .37110009E-3
MEAN_MOTION_DOT = .15475E-3
MEAN_MOTION_DDOT = 0

CCSDS_OMM_VERS = 2.0
CREATION_DATE  = 
ORIGINATOR     = 

OBJECT_NAME    = ALOS-2
OBJECT_ID      = 2014-029A
CENTER_NAME    = EARTH
REF_FRAME      = TEME
TIME_SYSTEM    = UTC
MEAN_ELEMENT_THEORY = SGP/SGP4

EPOCH          = 2025-12-02T06:14:11.929920
MEAN_MOTION    = 14.79508329
ECCENTRICITY   = .00013811
INCLINATION    = 97.9234
RA_OF_ASC_NODE = 71.2553
ARG_OF_PERICENTER = 98.5491
MEAN_ANOMALY   = 261.5877

EPHEMERIS_TYPE = 0
CLASSIFICATION_TYPE = U
NORAD_CAT_ID   = 39766
ELEMENT_SET_NO = 999
REV_AT_EPOCH   = 62246
BSTAR          = .35770461E-3
MEAN_MOTION_DOT = .2623E-4
MEAN_MOTION_DDOT = 0

CCSDS_OMM_VERS = 2.0
CREATION_DATE  = 
ORIGINATOR     = 

OBJECT_NAME    = YAOGAN-29
OBJECT_ID      = 2015-069A
CENTER_NAME    = EARTH
REF_FRAME      = TEME
TIME_SYSTEM    = UTC
MEAN_ELEMENT_THEORY = SGP/SGP4

EPOCH          = 2025-12-02T07:02:03.437376
MEAN_MOTION    = 14.82863359
ECCENTRICITY   = .00008475
INCLINATION    = 98.0229
RA_OF_ASC_NODE = 359.4308
ARG_OF_PERICENTER = 10.6997
MEAN_ANOMALY   = 349.4234

EPHEMERIS_TYPE = 0
CLASSIFICATION_TYPE = U
NORAD_CAT_ID   = 41038
ELEMENT_SET_NO = 999
REV_AT_EPOCH   = 54144
BSTAR          = .80732192E-4
MEAN_MOTION_DOT = .6E-5
MEAN_MOTION_DDOT = 0

CCSDS_OMM_VERS = 2.0
CREATION_DATE  = 
ORIGINATOR     = 

OBJECT_NAME    = ASTRO-H (HITOMI)
OBJECT_ID      = 2016-012A
CENTER_NAME    = EARTH
REF_FRAME      = TEME
TIME_SYSTEM    = UTC
MEAN_ELEMENT_THEORY = SGP/SGP4

EPOCH          = 2025-12-02T04:11:56.061888
MEAN_MOTION    = 15.09244457
ECCENTRICITY   = .00094733
INCLINATION    = 31.0002
RA_OF_ASC_NODE = 265.4760
ARG_OF_PERICENTER = 71.1508
MEAN_ANOMALY   = 289.0157

EPHEMERIS_TYPE = 0
CLASSIFICATION_TYPE = U
NORAD_CAT_ID   = 41337
ELEMENT_SET_NO = 999
REV_AT_EPOCH   = 53748
BSTAR          = .250775E-3
MEAN_MOTION_DOT = .4187E-4
MEAN_MOTION_DDOT = 0

CCSDS_OMM_VERS = 2.0
CREATION_DATE  = 
ORIGINATOR     = 

OBJECT_NAME    = HXMT (HUIYAN)
OBJECT_ID      = 2017-034A
CENTER_NAME    = EARTH
REF_FRAME      = TEME
TIME_SYSTEM    = UTC
MEAN_ELEMENT_THEORY = SGP/SGP4

EPOCH          = 2025-12-02T02:50:30.884064
MEAN_MOTION    = 15.16109299
ECCENTRICITY   = .00330715
INCLINATION    = 43.0132
RA_OF_ASC_NODE = 198.5643
ARG_OF_PERICENTER = 335.7036
MEAN_ANOMALY   = 24.2252

EPHEMERIS_TYPE = 0
CLASSIFICATION_TYPE = U
NORAD_CAT_ID   = 42758
ELEMENT_SET_NO = 999
REV_AT_EPOCH   = 46772
BSTAR          = .31114642E-3
MEAN_MOTION_DOT = .5951E-4
MEAN_MOTION_DDOT = 0

CCSDS_OMM_VERS = 2.0
CREATION_DATE  = 
ORIGINATOR     = 

OBJECT_NAME    = CZ-2C R/B
OBJECT_ID      = 2018-054D
CENTER_NAME    = EARTH
REF_FRAME      = TEME
TIME_SYSTEM    = UTC
MEAN_ELEMENT_THEORY = SGP/SGP4

EPOCH          = 2025-12-02T03:13:34.888512
MEAN_MOTION    = 15.71426149
ECCENTRICITY   = .00179834
INCLINATION    = 35.1348
RA_OF_ASC_NODE = 252.6774
ARG_OF_PERICENTER = 32.1672
MEAN_ANOMALY   = 328.0154

EPHEMERIS_TYPE = 0
CLASSIFICATION_TYPE = U
NORAD_CAT_ID   = 43521
ELEMENT_SET_NO = 999
REV_AT_EPOCH   = 41338
BSTAR          = .75047063E-3
MEAN_MOTION_DOT = .101468E-2
MEAN_MOTION_DDOT = 0

CCSDS_OMM_VERS = 2.0
CREATION_DATE  = 
ORIGINATOR     = 

OBJECT_NAME    = SAOCOM 1A
OBJECT_ID      = 2018-076A
CENTER_NAME    = EARTH
REF_FRAME      = TEME
TIME_SYSTEM    = UTC
MEAN_ELEMENT_THEORY = SGP/SGP4

EPOCH          = 2025-12-02T06:36:24.301728
MEAN_MOTION    = 14.82158969
ECCENTRICITY   = .00015785
INCLINATION    = 97.8848
RA_OF_ASC_NODE = 160.8498
ARG_OF_PERICENTER = 86.9278
MEAN_ANOMALY   = 273.2116

EPHEMERIS_TYPE = 0
CLASSIFICATION_TYPE = U
NORAD_CAT_ID   = 43641
ELEMENT_SET_NO = 999
REV_AT_EPOCH   = 38693
BSTAR          = .98057902E-4
MEAN_MOTION_DOT = .729E-5
MEAN_MOTION_DDOT = 0

CCSDS_OMM_VERS = 2.0
CREATION_DATE  = 
ORIGINATOR     = 

OBJECT_NAME    = H-2A R/B
OBJECT_ID      = 2018-084L
CENTER_NAME    = EARTH
REF_FRAME      = TEME
TIME_SYSTEM    = UTC
MEAN_ELEMENT_THEORY = SGP/SGP4

EPOCH          = 2025-12-02T06:38:29.344992
MEAN_MOTION    = 15.36801056
ECCENTRICITY   = .00282081
INCLINATION    = 98.8781
RA_OF_ASC_NODE = 168.1915
ARG_OF_PERICENTER = 2.3657
MEAN_ANOMALY   = 357.7711

EPHEMERIS_TYPE = 0
CLASSIFICATION_TYPE = U
NORAD_CAT_ID   = 43682
ELEMENT_SET_NO = 999
REV_AT_EPOCH   = 39079
BSTAR          = .60555061E-3
MEAN_MOTION_DOT = .22E-3
MEAN_MOTION_DDOT = 0

CCSDS_OMM_VERS = 2.0
CREATION_DATE  = 
ORIGINATOR     = 

OBJECT_NAME    = SAOCOM 1B
OBJECT_ID      = 2020-059A
CENTER_NAME    = EARTH
REF_FRAME      = TEME
TIME_SYSTEM    = UTC
MEAN_ELEMENT_THEORY = SGP/SGP4

EPOCH          = 2025-12-02T07:21:21.651840
MEAN_MOTION    = 14.82167605
ECCENTRICITY   = .00013539
INCLINATION    = 97.8843
RA_OF_ASC_NODE = 159.9818
ARG_OF_PERICENTER = 90.1657
MEAN_ANOMALY   = 269.9711

EPHEMERIS_TYPE = 0
CLASSIFICATION_TYPE = U
NORAD_CAT_ID   = 46265
ELEMENT_SET_NO = 999
REV_AT_EPOCH   = 28432
BSTAR          = .9822787E-4
MEAN_MOTION_DOT = .73E-5
MEAN_MOTION_DDOT = 0

CCSDS_OMM_VERS = 2.0
CREATION_DATE  = 
ORIGINATOR     = 

OBJECT_NAME    = CSS (TIANHE)
OBJECT_ID      = 2021-035A
CENTER_NAME    = EARTH
REF_FRAME      = TEME
TIME_SYSTEM    = UTC
MEAN_ELEMENT_THEORY = SGP/SGP4

EPOCH          = 2025-12-02T06:31:22.828800
MEAN_MOTION    = 15.58517706
ECCENTRICITY   = .00102589
INCLINATION    = 41.4672
RA_OF_ASC_NODE = 80.2264
ARG_OF_PERICENTER = 312.0297
MEAN_ANOMALY   = 47.9667

EPHEMERIS_TYPE = 0
CLASSIFICATION_TYPE = U
NORAD_CAT_ID   = 48274
ELEMENT_SET_NO = 999
REV_AT_EPOCH   = 26239
BSTAR          = .32073258E-3
MEAN_MOTION_DOT = .25017E-3
MEAN_MOTION_DDOT = 0

CCSDS_OMM_VERS = 2.0
CREATION_DATE  = 
ORIGINATOR     = 

OBJECT_NAME    = COSMOS 2550
OBJECT_ID      = 2021-056A
CENTER_NAME    = EARTH
REF_FRAME      = TEME
TIME_SYSTEM    = UTC
MEAN_ELEMENT_THEORY = SGP/SGP4

EPOCH          = 2025-11-29T19:33:31.970304
MEAN_MOTION    = 15.33825458
ECCENTRICITY   = .00083936
INCLINATION    = 67.1430
RA_OF_ASC_NODE = 343.0291
ARG_OF_PERICENTER = 269.4513
MEAN_ANOMALY   = 90.5680

EPHEMERIS_TYPE = 0
CLASSIFICATION_TYPE = U
NORAD_CAT_ID   = 48865
ELEMENT_SET_NO = 999
REV_AT_EPOCH   = 24814
BSTAR          = .1467811E-5
MEAN_MOTION_DOT = -.143E-5
MEAN_MOTION_DDOT = 0

