SHIJIAN-16 (SJ-16)      
1 39358U 13057A   25336.34274162  .00002229  00000+0  22240-3 0  9999
2 39358  74.9737   9.3263 0017299 344.3615  15.7036 14.91945353656984
SL-4 R/B                
1 39679U 14021B   25335.62378093  .00015475  00000+0  37110-3 0  9994
2 39679  51.6063  94.5995 0102777 106.2496 254.9823 15.36235478641187
ALOS-2                  
1 39766U 14029A   25336.25986030  .00002623  00000+0  35770-3 0  9996
2 39766  97.9234  71.2553 0001381  98.5491 261.5877 14.79508329622463
YAOGAN-29               
1 41038U 15069A   25336.29309534  .00000600  00000+0  80732-4 0  9990
2 41038  98.0229 359.4308 0000847  10.6997 349.4234 14.82863359541447
ASTRO-H (HITOMI)        
1 41337U 16012A   25336.17495442  .00004187  00000+0  25077-3 0  9996
2 41337  31.0002 265.4760 0009473  71.1508 289.0157 15.09244457537481
HXMT (HUIYAN)           
1 42758U 17034A   25336.11841301  .00005951  00000+0  31115-3 0  9992
2 42758  43.0132 198.5643 0033071 335.7036  24.2252 15.16109299467724
CZ-2C R/B               
1 43521U 18054D   25336.13443158  .00101468  00000+0  75047-3 0  9996
2 43521  35.1348 252.6774 0017983  32.1672 328.0154 15.71426149413385
SAOCOM 1A               
1 43641U 18076A   25336.27528127  .00000729  00000+0  98058-4 0  9994
2 43641  97.8848 160.8498 0001578  86.9278 273.2116 14.82158969386935
H-2A R/B                
1 43682U 18084L   25336.27672853  .00022000  00000+0  60555-3 0  9990
2 43682  98.8781 168.1915 0028208   2.3657 357.7711 15.36801056390794
SAOCOM 1B               
1 46265U 20059A   25336.30650060  .00000730  00000+0  98228-4 0  9990
2 46265  97.8843 159.9818 0001353  90.1657 269.9711 14.82167605284329
CSS (TIANHE)            
1 48274U 21035A   25336.27179200  .00025017  00000+0  32073-3 0  9995
2 48274  41.4672  80.2264 0010258 312.0297  47.9667 15.58517706262399
COSMOS 2550             
1 48865U 21056A   25333.81495336 -.00000143  00000+0  14678-5 0  9999
2 48865  67.1430 343.0291 0008393 269.4513  90.5680 15.33825458248140
